start=new Date('2023-02-19T00:00:00.000Z').valueOf();
sats=[{"MEAN_ELEMENT_THEORY":"SGP4","REV_AT_EPOCH":"3267","CENTER_NAME":"EARTH","CLASSIFICATION_TYPE":"U","BSTAR":"-0.00017197000000","GP_ID":"225946668","MEAN_ANOMALY":"250.0703","ECCENTRICITY":"0.00012990","EPOCH":"2023-02-18T12:53:05.535168","DECAY_DATE":null,"TLE_LINE2":"2 53278  53.2151 150.2436 0001299 110.0429 250.0703 15.08832182 32676","LAUNCH_DATE":"2022-07-24","NORAD_CAT_ID":"53278","OBJECT_ID":"2022-086AN","SEMIMAJOR_AXIS":"6917.904","SITE":"AFETR","COUNTRY_CODE":"US","REF_FRAME":"TEME","TIME_SYSTEM":"UTC","MEAN_MOTION_DDOT":"0.0000000000000","ARG_OF_PERICENTER":"110.0429","OBJECT_NAME":"STARLINK-4180","APOAPSIS":"540.668","INCLINATION":"53.2151","RCS_SIZE":"LARGE","FILE":"3807949","OBJECT_TYPE":"PAYLOAD","ELEMENT_SET_NO":"999","TLE_LINE1":"1 53278U 22086AN  23049.53686962 -.00003023  00000-0 -17197-3 0  9994","PERIOD":"95.438","EPHEMERIS_TYPE":"0","RA_OF_ASC_NODE":"150.2436","MEAN_MOTION_DOT":"-0.00003023","MEAN_MOTION":"15.08832182","PERIAPSIS":"538.871"},{"OBJECT_ID":"2022-086AQ","NORAD_CAT_ID":"53280","TLE_LINE2":"2 53280  53.2211 107.6731 0001358  84.3036 142.5571 15.52201502  1302","LAUNCH_DATE":"2022-07-24","SITE":"AFETR","COUNTRY_CODE":"US","SEMIMAJOR_AXIS":"6788.437","CLASSIFICATION_TYPE":"U","REV_AT_EPOCH":"130","CENTER_NAME":"EARTH","MEAN_ELEMENT_THEORY":"SGP4","DECAY_DATE":null,"ECCENTRICITY":"0.00013580","EPOCH":"2023-02-18T14:00:01.000224","BSTAR":"-0.01813400000000","GP_ID":"225925054","MEAN_ANOMALY":"142.5571","RA_OF_ASC_NODE":"107.6731","EPHEMERIS_TYPE":"0","PERIOD":"92.771","TLE_LINE1":"1 53280U 22086AQ  23049.58334491 -.01019434  00000-0 -18134-1 0  9993","ELEMENT_SET_NO":"999","OBJECT_TYPE":"PAYLOAD","PERIAPSIS":"409.380","MEAN_MOTION":"15.52201502","MEAN_MOTION_DOT":"-0.01019434","APOAPSIS":"411.224","ARG_OF_PERICENTER":"84.3036","MEAN_MOTION_DDOT":"0.0000000000000","OBJECT_NAME":"STARLINK-4169","TIME_SYSTEM":"UTC","REF_FRAME":"TEME","FILE":"3807124","RCS_SIZE":"LARGE","INCLINATION":"53.2211"},{"MEAN_MOTION_DOT":"0.00040836","MEAN_MOTION":"15.09432752","PERIAPSIS":"537.018","RA_OF_ASC_NODE":"151.1903","PERIOD":"95.400","EPHEMERIS_TYPE":"0","OBJECT_TYPE":"PAYLOAD","TLE_LINE1":"1 53281U 22086AR  23049.32245520  .00040836  00000-0  25278-2 0  9995","ELEMENT_SET_NO":"999","FILE":"3807124","RCS_SIZE":"LARGE","INCLINATION":"53.2167","APOAPSIS":"538.851","MEAN_MOTION_DDOT":"0.0000000000000","OBJECT_NAME":"STARLINK-4182","ARG_OF_PERICENTER":"62.2557","TIME_SYSTEM":"UTC","REF_FRAME":"TEME","COUNTRY_CODE":"US","SITE":"AFETR","SEMIMAJOR_AXIS":"6916.069","OBJECT_ID":"2022-086AR","LAUNCH_DATE":"2022-07-24","TLE_LINE2":"2 53281  53.2167 151.1903 0001325  62.2557 297.8570 15.09432752 32813","NORAD_CAT_ID":"53281","ECCENTRICITY":"0.00013250","EPOCH":"2023-02-18T07:44:20.129280","DECAY_DATE":null,"GP_ID":"225927059","MEAN_ANOMALY":"297.8570","BSTAR":"0.00252780000000","CENTER_NAME":"EARTH","REV_AT_EPOCH":"3281","CLASSIFICATION_TYPE":"U","MEAN_ELEMENT_THEORY":"SGP4"},{"APOAPSIS":"540.502","OBJECT_NAME":"STARLINK-4164","MEAN_MOTION_DDOT":"0.0000000000000","ARG_OF_PERICENTER":"107.5767","REF_FRAME":"TEME","TIME_SYSTEM":"UTC","FILE":"3808364","RCS_SIZE":"LARGE","INCLINATION":"53.2148","RA_OF_ASC_NODE":"149.0817","EPHEMERIS_TYPE":"0","PERIOD":"95.437","TLE_LINE1":"1 53282U 22086AS  23049.79446587  .00032646  00000-0  20596-2 0  9991","ELEMENT_SET_NO":"999","OBJECT_TYPE":"PAYLOAD","PERIAPSIS":"538.969","MEAN_MOTION":"15.08843309","MEAN_MOTION_DOT":"0.00032646","CLASSIFICATION_TYPE":"U","CENTER_NAME":"EARTH","REV_AT_EPOCH":"3271","MEAN_ELEMENT_THEORY":"SGP4","DECAY_DATE":null,"ECCENTRICITY":"0.00011080","EPOCH":"2023-02-18T19:04:01.851168","GP_ID":"225954805","MEAN_ANOMALY":"252.5346","BSTAR":"0.00205960000000","OBJECT_ID":"2022-086AS","TLE_LINE2":"2 53282  53.2148 149.0817 0001108 107.5767 252.5346 15.08843309 32719","LAUNCH_DATE":"2022-07-24","NORAD_CAT_ID":"53282","SITE":"AFETR","COUNTRY_CODE":"US","SEMIMAJOR_AXIS":"6917.870"},{"MEAN_MOTION_DOT":"-0.00002990","MEAN_MOTION":"15.08827521","PERIAPSIS":"538.888","OBJECT_TYPE":"PAYLOAD","TLE_LINE1":"1 53283U 22086AT  23049.78343295 -.00002990  00000-0 -16992-3 0  9990","ELEMENT_SET_NO":"999","PERIOD":"95.438","EPHEMERIS_TYPE":"0","RA_OF_ASC_NODE":"149.1236","INCLINATION":"53.2179","RCS_SIZE":"LARGE","FILE":"3807950","REF_FRAME":"TEME","TIME_SYSTEM":"UTC","ARG_OF_PERICENTER":"98.3972","MEAN_MOTION_DDOT":"0.0000000000000","OBJECT_NAME":"STARLINK-4175","APOAPSIS":"540.679","SEMIMAJOR_AXIS":"6917.919","SITE":"AFETR","COUNTRY_CODE":"US","TLE_LINE2":"2 53283  53.2179 149.1236 0001294  98.3972 261.7167 15.08827521 32712","NORAD_CAT_ID":"53283","LAUNCH_DATE":"2022-07-24","OBJECT_ID":"2022-086AT","GP_ID":"225946671","BSTAR":"-0.00016992000000","MEAN_ANOMALY":"261.7167","ECCENTRICITY":"0.00012940","EPOCH":"2023-02-18T18:48:08.606880","DECAY_DATE":null,"MEAN_ELEMENT_THEORY":"SGP4","REV_AT_EPOCH":"3271","CENTER_NAME":"EARTH","CLASSIFICATION_TYPE":"U"},{"TLE_LINE2":"2 53284  53.2159 149.6923 0001249  83.4107 276.7028 15.08844986 32697","NORAD_CAT_ID":"53284","LAUNCH_DATE":"2022-07-24","OBJECT_ID":"2022-086AU","SEMIMAJOR_AXIS":"6917.865","SITE":"AFETR","COUNTRY_CODE":"US","CLASSIFICATION_TYPE":"U","CENTER_NAME":"EARTH","REV_AT_EPOCH":"3269","MEAN_ELEMENT_THEORY":"SGP4","DECAY_DATE":null,"ECCENTRICITY":"0.00012490","EPOCH":"2023-02-18T15:47:57.525216","BSTAR":"0.00184820000000","GP_ID":"225946669","MEAN_ANOMALY":"276.7028","EPHEMERIS_TYPE":"0","PERIOD":"95.437","RA_OF_ASC_NODE":"149.6923","ELEMENT_SET_NO":"999","TLE_LINE1":"1 53284U 22086AU  23049.65830469  .00029253  00000-0  18482-2 0  9995","OBJECT_TYPE":"PAYLOAD","MEAN_MOTION":"15.08844986","PERIAPSIS":"538.866","MEAN_MOTION_DOT":"0.00029253","APOAPSIS":"540.594","REF_FRAME":"TEME","TIME_SYSTEM":"UTC","MEAN_MOTION_DDOT":"0.0000000000000","OBJECT_NAME":"STARLINK-4172","ARG_OF_PERICENTER":"83.4107","FILE":"3807950","INCLINATION":"53.2159","RCS_SIZE":"LARGE"},{"EPOCH":"2023-02-18T13:46:04.889280","ECCENTRICITY":"0.00008810","DECAY_DATE":null,"GP_ID":"225946747","BSTAR":"0.00073464000000","MEAN_ANOMALY":"301.5252","CENTER_NAME":"EARTH","REV_AT_EPOCH":"3268","CLASSIFICATION_TYPE":"U","MEAN_ELEMENT_THEORY":"SGP4","COUNTRY_CODE":"US","SITE":"AFETR","SEMIMAJOR_AXIS":"6917.904","OBJECT_ID":"2022-086AV","TLE_LINE2":"2 53285  53.2181 150.0740 0000881  58.5827 301.5252 15.08832234 32687","LAUNCH_DATE":"2022-07-24","NORAD_CAT_ID":"53285","FILE":"3807950","RCS_SIZE":"LARGE","INCLINATION":"53.2181","APOAPSIS":"540.379","MEAN_MOTION_DDOT":"0.0000000000000","ARG_OF_PERICENTER":"58.5827","OBJECT_NAME":"STARLINK-4173","REF_FRAME":"TEME","TIME_SYSTEM":"UTC","MEAN_MOTION_DOT":"0.00011421","PERIAPSIS":"539.160","MEAN_MOTION":"15.08832234","RA_OF_ASC_NODE":"150.0740","PERIOD":"95.438","EPHEMERIS_TYPE":"0","OBJECT_TYPE":"PAYLOAD","ELEMENT_SET_NO":"999","TLE_LINE1":"1 53285U 22086AV  23049.57366770  .00011421  00000-0  73464-3 0  9996"},{"CLASSIFICATION_TYPE":"U","CENTER_NAME":"EARTH","REV_AT_EPOCH":"3269","MEAN_ELEMENT_THEORY":"SGP4","DECAY_DATE":null,"EPOCH":"2023-02-18T15:32:04.156512","ECCENTRICITY":"0.00013070","MEAN_ANOMALY":"289.1766","GP_ID":"225948622","BSTAR":"-0.00000842110000","OBJECT_ID":"2022-086AW","NORAD_CAT_ID":"53286","TLE_LINE2":"2 53286  53.2167 149.7388 0001307  70.9367 289.1766 15.08830218 32698","LAUNCH_DATE":"2022-07-24","SITE":"AFETR","COUNTRY_CODE":"US","SEMIMAJOR_AXIS":"6917.910","APOAPSIS":"540.679","MEAN_MOTION_DDOT":"0.0000000000000","OBJECT_NAME":"STARLINK-4165","ARG_OF_PERICENTER":"70.9367","REF_FRAME":"TEME","TIME_SYSTEM":"UTC","FILE":"3808024","RCS_SIZE":"LARGE","INCLINATION":"53.2167","RA_OF_ASC_NODE":"149.7388","EPHEMERIS_TYPE":"0","PERIOD":"95.438","ELEMENT_SET_NO":"999","TLE_LINE1":"1 53286U 22086AW  23049.64727033 -.00000422  00000-0 -84211-5 0  9993","OBJECT_TYPE":"PAYLOAD","PERIAPSIS":"538.871","MEAN_MOTION":"15.08830218","MEAN_MOTION_DOT":"-0.00000422"},{"MEAN_ELEMENT_THEORY":"SGP4","REV_AT_EPOCH":"3284","CENTER_NAME":"EARTH","CLASSIFICATION_TYPE":"U","GP_ID":"225925565","MEAN_ANOMALY":"252.8524","BSTAR":"0.00038275000000","EPOCH":"2023-02-18T13:35:29.091552","ECCENTRICITY":"0.00006860","DECAY_DATE":null,"OBJECT_ID":"2022-086AX","TLE_LINE2":"2 53287  53.2167 150.1006 0000686 107.2544 252.8524 15.08815217 32840","NORAD_CAT_ID":"53287","LAUNCH_DATE":"2022-07-24","SITE":"AFETR","COUNTRY_CODE":"US","SEMIMAJOR_AXIS":"6917.956","MEAN_MOTION_DDOT":"0.0000000000000","ARG_OF_PERICENTER":"107.2544","OBJECT_NAME":"STARLINK-4107","REF_FRAME":"TEME","TIME_SYSTEM":"UTC","APOAPSIS":"540.296","RCS_SIZE":"LARGE","INCLINATION":"53.2167","FILE":"3807124","OBJECT_TYPE":"PAYLOAD","ELEMENT_SET_NO":"999","TLE_LINE1":"1 53287U 22086AX  23049.56630893  .00005805  00000-0  38275-3 0  9997","RA_OF_ASC_NODE":"150.1006","PERIOD":"95.439","EPHEMERIS_TYPE":"0","MEAN_MOTION_DOT":"0.00005805","MEAN_MOTION":"15.08815217","PERIAPSIS":"539.347"},{"MEAN_MOTION":"15.08820058","PERIAPSIS":"539.368","MEAN_MOTION_DOT":"-0.00000620","ELEMENT_SET_NO":"999","TLE_LINE1":"1 53288U 22086AY  23049.57735576 -.00000620  00000-0 -20895-4 0  9995","OBJECT_TYPE":"PAYLOAD","EPHEMERIS_TYPE":"0","PERIOD":"95.439","RA_OF_ASC_NODE":"150.0486","INCLINATION":"53.2195","RCS_SIZE":"LARGE","FILE":"3807124","REF_FRAME":"TEME","TIME_SYSTEM":"UTC","MEAN_MOTION_DDOT":"0.0000000000000","OBJECT_NAME":"STARLINK-4162","ARG_OF_PERICENTER":"51.0535","APOAPSIS":"540.245","SEMIMAJOR_AXIS":"6917.941","COUNTRY_CODE":"US","SITE":"AFETR","LAUNCH_DATE":"2022-07-24","TLE_LINE2":"2 53288  53.2195 150.0486 0000634  51.0535 309.0514 15.08820058 32845","NORAD_CAT_ID":"53288","OBJECT_ID":"2022-086AY","MEAN_ANOMALY":"309.0514","GP_ID":"225925055","BSTAR":"-0.00002089500000","DECAY_DATE":null,"ECCENTRICITY":"0.00006340","EPOCH":"2023-02-18T13:51:23.537664","MEAN_ELEMENT_THEORY":"SGP4","CLASSIFICATION_TYPE":"U","CENTER_NAME":"EARTH","REV_AT_EPOCH":"3284"}];
